{
  "type": "FeatureCollection",
  "name": "CDMX Colonias (Sample)",
  "features": [
    {
      "type": "Feature",
      "properties": { "NOMGEO": "Polanco", "ALCALDIA": "Miguel Hidalgo" },
      "geometry": {
        "type": "Polygon",
        "coordinates": [[
          [-99.205, 19.432], [-99.189, 19.432], [-99.189, 19.445],
          [-99.205, 19.445], [-99.205, 19.432]
        ]]
      }
    },
    {
      "type": "Feature",
      "properties": { "NOMGEO": "Condesa", "ALCALDIA": "Cuauhtémoc" },
      "geometry": {
        "type": "Polygon",
        "coordinates": [[
          [-99.183, 19.410], [-99.170, 19.410], [-99.170, 19.422],
          [-99.183, 19.422], [-99.183, 19.410]
        ]]
      }
    },
    {
      "type": "Feature",
      "properties": { "NOMGEO": "Roma Norte", "ALCALDIA": "Cuauhtémoc" },
      "geometry": {
        "type": "Polygon",
        "coordinates": [[
          [-99.170, 19.413], [-99.158, 19.413], [-99.158, 19.425],
          [-99.170, 19.425], [-99.170, 19.413]
        ]]
      }
    },
    {
      "type": "Feature",
      "properties": { "NOMGEO": "Roma Sur", "ALCALDIA": "Cuauhtémoc" },
      "geometry": {
        "type": "Polygon",
        "coordinates": [[
          [-99.170, 19.402], [-99.158, 19.402], [-99.158, 19.413],
          [-99.170, 19.413], [-99.170, 19.402]
        ]]
      }
    },
    {
      "type": "Feature",
      "properties": { "NOMGEO": "Coyoacán", "ALCALDIA": "Coyoacán" },
      "geometry": {
        "type": "Polygon",
        "coordinates": [[
          [-99.165, 19.340], [-99.145, 19.340], [-99.145, 19.362],
          [-99.165, 19.362], [-99.165, 19.340]
        ]]
      }
    },
    {
      "type": "Feature",
      "properties": { "NOMGEO": "Del Valle", "ALCALDIA": "Benito Juárez" },
      "geometry": {
        "type": "Polygon",
        "coordinates": [[
          [-99.175, 19.381], [-99.158, 19.381], [-99.158, 19.397],
          [-99.175, 19.397], [-99.175, 19.381]
        ]]
      }
    },
    {
      "type": "Feature",
      "properties": { "NOMGEO": "Narvarte Poniente", "ALCALDIA": "Benito Juárez" },
      "geometry": {
        "type": "Polygon",
        "coordinates": [[
          [-99.160, 19.390], [-99.148, 19.390], [-99.148, 19.403],
          [-99.160, 19.403], [-99.160, 19.390]
        ]]
      }
    },
    {
      "type": "Feature",
      "properties": { "NOMGEO": "Santa Fe", "ALCALDIA": "Cuajimalpa" },
      "geometry": {
        "type": "Polygon",
        "coordinates": [[
          [-99.265, 19.355], [-99.245, 19.355], [-99.245, 19.375],
          [-99.265, 19.375], [-99.265, 19.355]
        ]]
      }
    },
    {
      "type": "Feature",
      "properties": { "NOMGEO": "Lomas de Chapultepec", "ALCALDIA": "Miguel Hidalgo" },
      "geometry": {
        "type": "Polygon",
        "coordinates": [[
          [-99.220, 19.415], [-99.205, 19.415], [-99.205, 19.432],
          [-99.220, 19.432], [-99.220, 19.415]
        ]]
      }
    },
    {
      "type": "Feature",
      "properties": { "NOMGEO": "Doctores", "ALCALDIA": "Cuauhtémoc" },
      "geometry": {
        "type": "Polygon",
        "coordinates": [[
          [-99.148, 19.411], [-99.136, 19.411], [-99.136, 19.423],
          [-99.148, 19.423], [-99.148, 19.411]
        ]]
      }
    },
    {
      "type": "Feature",
      "properties": { "NOMGEO": "Tepito", "ALCALDIA": "Cuauhtémoc" },
      "geometry": {
        "type": "Polygon",
        "coordinates": [[
          [-99.135, 19.435], [-99.122, 19.435], [-99.122, 19.446],
          [-99.135, 19.446], [-99.135, 19.435]
        ]]
      }
    },
    {
      "type": "Feature",
      "properties": { "NOMGEO": "Guerrero", "ALCALDIA": "Cuauhtémoc" },
      "geometry": {
        "type": "Polygon",
        "coordinates": [[
          [-99.152, 19.440], [-99.135, 19.440], [-99.135, 19.453],
          [-99.152, 19.453], [-99.152, 19.440]
        ]]
      }
    },
    {
      "type": "Feature",
      "properties": { "NOMGEO": "Tlalpan", "ALCALDIA": "Tlalpan" },
      "geometry": {
        "type": "Polygon",
        "coordinates": [[
          [-99.185, 19.290], [-99.155, 19.290], [-99.155, 19.320],
          [-99.185, 19.320], [-99.185, 19.290]
        ]]
      }
    },
    {
      "type": "Feature",
      "properties": { "NOMGEO": "Azcapotzalco", "ALCALDIA": "Azcapotzalco" },
      "geometry": {
        "type": "Polygon",
        "coordinates": [[
          [-99.200, 19.475], [-99.175, 19.475], [-99.175, 19.495],
          [-99.200, 19.495], [-99.200, 19.475]
        ]]
      }
    },
    {
      "type": "Feature",
      "properties": { "NOMGEO": "Cuauhtémoc", "ALCALDIA": "Cuauhtémoc" },
      "geometry": {
        "type": "Polygon",
        "coordinates": [[
          [-99.158, 19.425], [-99.140, 19.425], [-99.140, 19.440],
          [-99.158, 19.440], [-99.158, 19.425]
        ]]
      }
    },
    {
      "type": "Feature",
      "properties": { "NOMGEO": "Benito Juárez", "ALCALDIA": "Benito Juárez" },
      "geometry": {
        "type": "Polygon",
        "coordinates": [[
          [-99.175, 19.395], [-99.155, 19.395], [-99.155, 19.412],
          [-99.175, 19.412], [-99.175, 19.395]
        ]]
      }
    },
    {
      "type": "Feature",
      "properties": { "NOMGEO": "Xochimilco", "ALCALDIA": "Xochimilco" },
      "geometry": {
        "type": "Polygon",
        "coordinates": [[
          [-99.120, 19.255], [-99.090, 19.255], [-99.090, 19.285],
          [-99.120, 19.285], [-99.120, 19.255]
        ]]
      }
    },
    {
      "type": "Feature",
      "properties": { "NOMGEO": "Iztapalapa", "ALCALDIA": "Iztapalapa" },
      "geometry": {
        "type": "Polygon",
        "coordinates": [[
          [-99.095, 19.355], [-99.060, 19.355], [-99.060, 19.390],
          [-99.095, 19.390], [-99.095, 19.355]
        ]]
      }
    },
    {
      "type": "Feature",
      "properties": { "NOMGEO": "Gustavo A. Madero", "ALCALDIA": "Gustavo A. Madero" },
      "geometry": {
        "type": "Polygon",
        "coordinates": [[
          [-99.120, 19.465], [-99.085, 19.465], [-99.085, 19.500],
          [-99.120, 19.500], [-99.120, 19.465]
        ]]
      }
    },
    {
      "type": "Feature",
      "properties": { "NOMGEO": "Pedregal", "ALCALDIA": "Álvaro Obregón" },
      "geometry": {
        "type": "Polygon",
        "coordinates": [[
          [-99.215, 19.320], [-99.195, 19.320], [-99.195, 19.345],
          [-99.215, 19.345], [-99.215, 19.320]
        ]]
      }
    },
    {
      "type": "Feature",
      "properties": { "NOMGEO": "Mixcoac", "ALCALDIA": "Álvaro Obregón" },
      "geometry": {
        "type": "Polygon",
        "coordinates": [[
          [-99.198, 19.380], [-99.180, 19.380], [-99.180, 19.398],
          [-99.198, 19.398], [-99.198, 19.380]
        ]]
      }
    },
    {
      "type": "Feature",
      "properties": { "NOMGEO": "Tlatelolco", "ALCALDIA": "Cuauhtémoc" },
      "geometry": {
        "type": "Polygon",
        "coordinates": [[
          [-99.147, 19.447], [-99.135, 19.447], [-99.135, 19.458],
          [-99.147, 19.458], [-99.147, 19.447]
        ]]
      }
    },
    {
      "type": "Feature",
      "properties": { "NOMGEO": "Escandón", "ALCALDIA": "Miguel Hidalgo" },
      "geometry": {
        "type": "Polygon",
        "coordinates": [[
          [-99.192, 19.406], [-99.178, 19.406], [-99.178, 19.418],
          [-99.192, 19.418], [-99.192, 19.406]
        ]]
      }
    },
    {
      "type": "Feature",
      "properties": { "NOMGEO": "Hipódromo Condesa", "ALCALDIA": "Cuauhtémoc" },
      "geometry": {
        "type": "Polygon",
        "coordinates": [[
          [-99.183, 19.400], [-99.170, 19.400], [-99.170, 19.410],
          [-99.183, 19.410], [-99.183, 19.400]
        ]]
      }
    },
    {
      "type": "Feature",
      "properties": { "NOMGEO": "Centro Histórico", "ALCALDIA": "Cuauhtémoc" },
      "geometry": {
        "type": "Polygon",
        "coordinates": [[
          [-99.145, 19.430], [-99.130, 19.430], [-99.130, 19.443],
          [-99.145, 19.443], [-99.145, 19.430]
        ]]
      }
    },
    {
      "type": "Feature",
      "properties": { "NOMGEO": "Napoles", "ALCALDIA": "Benito Juárez" },
      "geometry": {
        "type": "Polygon",
        "coordinates": [[
          [-99.188, 19.386], [-99.175, 19.386], [-99.175, 19.398],
          [-99.188, 19.398], [-99.188, 19.386]
        ]]
      }
    },
    {
      "type": "Feature",
      "properties": { "NOMGEO": "Insurgentes Sur", "ALCALDIA": "Benito Juárez" },
      "geometry": {
        "type": "Polygon",
        "coordinates": [[
          [-99.178, 19.365], [-99.163, 19.365], [-99.163, 19.381],
          [-99.178, 19.381], [-99.178, 19.365]
        ]]
      }
    },
    {
      "type": "Feature",
      "properties": { "NOMGEO": "Anzures", "ALCALDIA": "Miguel Hidalgo" },
      "geometry": {
        "type": "Polygon",
        "coordinates": [[
          [-99.197, 19.425], [-99.183, 19.425], [-99.183, 19.436],
          [-99.197, 19.436], [-99.197, 19.425]
        ]]
      }
    },
    {
      "type": "Feature",
      "properties": { "NOMGEO": "Peralvillo", "ALCALDIA": "Cuauhtémoc" },
      "geometry": {
        "type": "Polygon",
        "coordinates": [[
          [-99.143, 19.448], [-99.130, 19.448], [-99.130, 19.460],
          [-99.143, 19.460], [-99.143, 19.448]
        ]]
      }
    },
    {
      "type": "Feature",
      "properties": { "NOMGEO": "Portales", "ALCALDIA": "Benito Juárez" },
      "geometry": {
        "type": "Polygon",
        "coordinates": [[
          [-99.155, 19.373], [-99.140, 19.373], [-99.140, 19.388],
          [-99.155, 19.388], [-99.155, 19.373]
        ]]
      }
    }
  ]
}
