{
  "type": "FeatureCollection",
  "name": "CDMX Colonias",
  "crs": { "type": "name", "properties": { "name": "urn:ogc:def:crs:OGC:1.3:CRS84" } },
  "features": [
    { "type": "Feature", "properties": { "NOMGEO": "Villa Quietud", "ALCALDIA": "Coyoacán" }, "geometry": { "type": "Polygon", "coordinates": [[[-99.245,19.300],[-99.220,19.300],[-99.220,19.318],[-99.245,19.318],[-99.245,19.300]]] } },
    { "type": "Feature", "properties": { "NOMGEO": "Pedregal de San Francisco", "ALCALDIA": "Coyoacán" }, "geometry": { "type": "Polygon", "coordinates": [[[-99.220,19.300],[-99.195,19.300],[-99.195,19.318],[-99.220,19.318],[-99.220,19.300]]] } },
    { "type": "Feature", "properties": { "NOMGEO": "Milpa Alta", "ALCALDIA": "Milpa Alta" }, "geometry": { "type": "Polygon", "coordinates": [[[-99.170,19.300],[-99.145,19.300],[-99.145,19.318],[-99.170,19.318],[-99.170,19.300]]] } },
    { "type": "Feature", "properties": { "NOMGEO": "San Lorenzo Tlacoyucan", "ALCALDIA": "Milpa Alta" }, "geometry": { "type": "Polygon", "coordinates": [[[-99.145,19.300],[-99.120,19.300],[-99.120,19.318],[-99.145,19.318],[-99.145,19.300]]] } },
    { "type": "Feature", "properties": { "NOMGEO": "Pedregal de San Ángel", "ALCALDIA": "Álvaro Obregón" }, "geometry": { "type": "Polygon", "coordinates": [[[-99.245,19.318],[-99.220,19.318],[-99.220,19.336],[-99.245,19.336],[-99.245,19.318]]] } },
    { "type": "Feature", "properties": { "NOMGEO": "Tlalpan", "ALCALDIA": "Tlalpan" }, "geometry": { "type": "Polygon", "coordinates": [[[-99.220,19.318],[-99.195,19.318],[-99.195,19.336],[-99.220,19.336],[-99.220,19.318]]] } },
    { "type": "Feature", "properties": { "NOMGEO": "Xochimilco", "ALCALDIA": "Xochimilco" }, "geometry": { "type": "Polygon", "coordinates": [[[-99.195,19.318],[-99.170,19.318],[-99.170,19.336],[-99.195,19.336],[-99.195,19.318]]] } },
    { "type": "Feature", "properties": { "NOMGEO": "San Gregorio Atlapulco", "ALCALDIA": "Xochimilco" }, "geometry": { "type": "Polygon", "coordinates": [[[-99.170,19.318],[-99.145,19.318],[-99.145,19.336],[-99.170,19.336],[-99.170,19.318]]] } },
    { "type": "Feature", "properties": { "NOMGEO": "San Ángel Inn", "ALCALDIA": "Álvaro Obregón" }, "geometry": { "type": "Polygon", "coordinates": [[[-99.245,19.336],[-99.220,19.336],[-99.220,19.354],[-99.245,19.354],[-99.245,19.336]]] } },
    { "type": "Feature", "properties": { "NOMGEO": "Coyoacán", "ALCALDIA": "Coyoacán" }, "geometry": { "type": "Polygon", "coordinates": [[[-99.220,19.336],[-99.195,19.336],[-99.195,19.354],[-99.220,19.354],[-99.220,19.336]]] } },
    { "type": "Feature", "properties": { "NOMGEO": "Villa Coyoacán", "ALCALDIA": "Coyoacán" }, "geometry": { "type": "Polygon", "coordinates": [[[-99.195,19.336],[-99.170,19.336],[-99.170,19.354],[-99.195,19.354],[-99.195,19.336]]] } },
    { "type": "Feature", "properties": { "NOMGEO": "Tláhuac", "ALCALDIA": "Tláhuac" }, "geometry": { "type": "Polygon", "coordinates": [[[-99.170,19.336],[-99.145,19.336],[-99.145,19.354],[-99.170,19.354],[-99.170,19.336]]] } },
    { "type": "Feature", "properties": { "NOMGEO": "Iztapalapa Sur", "ALCALDIA": "Iztapalapa" }, "geometry": { "type": "Polygon", "coordinates": [[[-99.145,19.336],[-99.120,19.336],[-99.120,19.354],[-99.145,19.354],[-99.145,19.336]]] } },
    { "type": "Feature", "properties": { "NOMGEO": "Cuajimalpa", "ALCALDIA": "Cuajimalpa de Morelos" }, "geometry": { "type": "Polygon", "coordinates": [[[-99.270,19.354],[-99.245,19.354],[-99.245,19.372],[-99.270,19.372],[-99.270,19.354]]] } },
    { "type": "Feature", "properties": { "NOMGEO": "San Ángel", "ALCALDIA": "Álvaro Obregón" }, "geometry": { "type": "Polygon", "coordinates": [[[-99.245,19.354],[-99.220,19.354],[-99.220,19.372],[-99.245,19.372],[-99.245,19.354]]] } },
    { "type": "Feature", "properties": { "NOMGEO": "Pedregal", "ALCALDIA": "Álvaro Obregón" }, "geometry": { "type": "Polygon", "coordinates": [[[-99.220,19.354],[-99.195,19.354],[-99.195,19.372],[-99.220,19.372],[-99.220,19.354]]] } },
    { "type": "Feature", "properties": { "NOMGEO": "Churubusco", "ALCALDIA": "Coyoacán" }, "geometry": { "type": "Polygon", "coordinates": [[[-99.195,19.354],[-99.170,19.354],[-99.170,19.372],[-99.195,19.372],[-99.195,19.354]]] } },
    { "type": "Feature", "properties": { "NOMGEO": "Iztapalapa", "ALCALDIA": "Iztapalapa" }, "geometry": { "type": "Polygon", "coordinates": [[[-99.170,19.354],[-99.145,19.354],[-99.145,19.372],[-99.170,19.372],[-99.170,19.354]]] } },
    { "type": "Feature", "properties": { "NOMGEO": "Santa Cruz Meyehualco", "ALCALDIA": "Iztapalapa" }, "geometry": { "type": "Polygon", "coordinates": [[[-99.145,19.354],[-99.120,19.354],[-99.120,19.372],[-99.145,19.372],[-99.145,19.354]]] } },
    { "type": "Feature", "properties": { "NOMGEO": "San Miguel Teotongo", "ALCALDIA": "Iztapalapa" }, "geometry": { "type": "Polygon", "coordinates": [[[-99.120,19.354],[-99.095,19.354],[-99.095,19.372],[-99.120,19.372],[-99.120,19.354]]] } },
    { "type": "Feature", "properties": { "NOMGEO": "Santa Fe", "ALCALDIA": "Cuajimalpa de Morelos" }, "geometry": { "type": "Polygon", "coordinates": [[[-99.270,19.372],[-99.245,19.372],[-99.245,19.390],[-99.270,19.390],[-99.270,19.372]]] } },
    { "type": "Feature", "properties": { "NOMGEO": "Mixcoac", "ALCALDIA": "Álvaro Obregón" }, "geometry": { "type": "Polygon", "coordinates": [[[-99.245,19.372],[-99.220,19.372],[-99.220,19.390],[-99.245,19.390],[-99.245,19.372]]] } },
    { "type": "Feature", "properties": { "NOMGEO": "Del Valle Norte", "ALCALDIA": "Benito Juárez" }, "geometry": { "type": "Polygon", "coordinates": [[[-99.220,19.372],[-99.195,19.372],[-99.195,19.390],[-99.220,19.390],[-99.220,19.372]]] } },
    { "type": "Feature", "properties": { "NOMGEO": "Del Valle", "ALCALDIA": "Benito Juárez" }, "geometry": { "type": "Polygon", "coordinates": [[[-99.195,19.372],[-99.170,19.372],[-99.170,19.390],[-99.195,19.390],[-99.195,19.372]]] } },
    { "type": "Feature", "properties": { "NOMGEO": "Portales Norte", "ALCALDIA": "Benito Juárez" }, "geometry": { "type": "Polygon", "coordinates": [[[-99.170,19.372],[-99.145,19.372],[-99.145,19.390],[-99.170,19.390],[-99.170,19.372]]] } },
    { "type": "Feature", "properties": { "NOMGEO": "Iztapalapa Centro", "ALCALDIA": "Iztapalapa" }, "geometry": { "type": "Polygon", "coordinates": [[[-99.145,19.372],[-99.120,19.372],[-99.120,19.390],[-99.145,19.390],[-99.145,19.372]]] } },
    { "type": "Feature", "properties": { "NOMGEO": "Los Reyes", "ALCALDIA": "Iztapalapa" }, "geometry": { "type": "Polygon", "coordinates": [[[-99.120,19.372],[-99.095,19.372],[-99.095,19.390],[-99.120,19.390],[-99.120,19.372]]] } },
    { "type": "Feature", "properties": { "NOMGEO": "Santa Fe Norte", "ALCALDIA": "Cuajimalpa de Morelos" }, "geometry": { "type": "Polygon", "coordinates": [[[-99.270,19.390],[-99.245,19.390],[-99.245,19.408],[-99.270,19.408],[-99.270,19.390]]] } },
    { "type": "Feature", "properties": { "NOMGEO": "Álvaro Obregón", "ALCALDIA": "Álvaro Obregón" }, "geometry": { "type": "Polygon", "coordinates": [[[-99.245,19.390],[-99.220,19.390],[-99.220,19.408],[-99.245,19.408],[-99.245,19.390]]] } },
    { "type": "Feature", "properties": { "NOMGEO": "Escandón", "ALCALDIA": "Miguel Hidalgo" }, "geometry": { "type": "Polygon", "coordinates": [[[-99.220,19.390],[-99.195,19.390],[-99.195,19.408],[-99.220,19.408],[-99.220,19.390]]] } },
    { "type": "Feature", "properties": { "NOMGEO": "Narvarte Poniente", "ALCALDIA": "Benito Juárez" }, "geometry": { "type": "Polygon", "coordinates": [[[-99.195,19.390],[-99.170,19.390],[-99.170,19.408],[-99.195,19.408],[-99.195,19.390]]] } },
    { "type": "Feature", "properties": { "NOMGEO": "Benito Juárez", "ALCALDIA": "Benito Juárez" }, "geometry": { "type": "Polygon", "coordinates": [[[-99.170,19.390],[-99.145,19.390],[-99.145,19.408],[-99.170,19.408],[-99.170,19.390]]] } },
    { "type": "Feature", "properties": { "NOMGEO": "Iztacalco", "ALCALDIA": "Iztacalco" }, "geometry": { "type": "Polygon", "coordinates": [[[-99.145,19.390],[-99.120,19.390],[-99.120,19.408],[-99.145,19.408],[-99.145,19.390]]] } },
    { "type": "Feature", "properties": { "NOMGEO": "Agrícola Oriental", "ALCALDIA": "Iztacalco" }, "geometry": { "type": "Polygon", "coordinates": [[[-99.120,19.390],[-99.095,19.390],[-99.095,19.408],[-99.120,19.408],[-99.120,19.390]]] } },
    { "type": "Feature", "properties": { "NOMGEO": "Lomas de Bezares", "ALCALDIA": "Miguel Hidalgo" }, "geometry": { "type": "Polygon", "coordinates": [[[-99.245,19.408],[-99.220,19.408],[-99.220,19.426],[-99.245,19.426],[-99.245,19.408]]] } },
    { "type": "Feature", "properties": { "NOMGEO": "Polanco", "ALCALDIA": "Miguel Hidalgo" }, "geometry": { "type": "Polygon", "coordinates": [[[-99.220,19.408],[-99.195,19.408],[-99.195,19.426],[-99.220,19.426],[-99.220,19.408]]] } },
    { "type": "Feature", "properties": { "NOMGEO": "Condesa", "ALCALDIA": "Cuauhtémoc" }, "geometry": { "type": "Polygon", "coordinates": [[[-99.195,19.408],[-99.170,19.408],[-99.170,19.426],[-99.195,19.426],[-99.195,19.408]]] } },
    { "type": "Feature", "properties": { "NOMGEO": "Roma Norte", "ALCALDIA": "Cuauhtémoc" }, "geometry": { "type": "Polygon", "coordinates": [[[-99.170,19.408],[-99.145,19.408],[-99.145,19.426],[-99.170,19.426],[-99.170,19.408]]] } },
    { "type": "Feature", "properties": { "NOMGEO": "Doctores", "ALCALDIA": "Cuauhtémoc" }, "geometry": { "type": "Polygon", "coordinates": [[[-99.145,19.408],[-99.120,19.408],[-99.120,19.426],[-99.145,19.426],[-99.145,19.408]]] } },
    { "type": "Feature", "properties": { "NOMGEO": "Iztacalco Norte", "ALCALDIA": "Iztacalco" }, "geometry": { "type": "Polygon", "coordinates": [[[-99.120,19.408],[-99.095,19.408],[-99.095,19.426],[-99.120,19.426],[-99.120,19.408]]] } },
    { "type": "Feature", "properties": { "NOMGEO": "Santa Anita", "ALCALDIA": "Iztapalapa" }, "geometry": { "type": "Polygon", "coordinates": [[[-99.095,19.408],[-99.070,19.408],[-99.070,19.426],[-99.095,19.426],[-99.095,19.408]]] } },
    { "type": "Feature", "properties": { "NOMGEO": "Interlomas", "ALCALDIA": "Miguel Hidalgo" }, "geometry": { "type": "Polygon", "coordinates": [[[-99.270,19.426],[-99.245,19.426],[-99.245,19.444],[-99.270,19.444],[-99.270,19.426]]] } },
    { "type": "Feature", "properties": { "NOMGEO": "Lomas de Chapultepec", "ALCALDIA": "Miguel Hidalgo" }, "geometry": { "type": "Polygon", "coordinates": [[[-99.245,19.426],[-99.220,19.426],[-99.220,19.444],[-99.245,19.444],[-99.245,19.426]]] } },
    { "type": "Feature", "properties": { "NOMGEO": "Anzures", "ALCALDIA": "Miguel Hidalgo" }, "geometry": { "type": "Polygon", "coordinates": [[[-99.220,19.426],[-99.195,19.426],[-99.195,19.444],[-99.220,19.444],[-99.220,19.426]]] } },
    { "type": "Feature", "properties": { "NOMGEO": "Hipódromo Condesa", "ALCALDIA": "Cuauhtémoc" }, "geometry": { "type": "Polygon", "coordinates": [[[-99.195,19.426],[-99.170,19.426],[-99.170,19.444],[-99.195,19.444],[-99.195,19.426]]] } },
    { "type": "Feature", "properties": { "NOMGEO": "Roma Sur", "ALCALDIA": "Cuauhtémoc" }, "geometry": { "type": "Polygon", "coordinates": [[[-99.170,19.426],[-99.145,19.426],[-99.145,19.444],[-99.170,19.444],[-99.170,19.426]]] } },
    { "type": "Feature", "properties": { "NOMGEO": "Obrera", "ALCALDIA": "Cuauhtémoc" }, "geometry": { "type": "Polygon", "coordinates": [[[-99.145,19.426],[-99.120,19.426],[-99.120,19.444],[-99.145,19.444],[-99.145,19.426]]] } },
    { "type": "Feature", "properties": { "NOMGEO": "Jardín Balbuena", "ALCALDIA": "Venustiano Carranza" }, "geometry": { "type": "Polygon", "coordinates": [[[-99.120,19.426],[-99.095,19.426],[-99.095,19.444],[-99.120,19.444],[-99.120,19.426]]] } },
    { "type": "Feature", "properties": { "NOMGEO": "Aeropuerto", "ALCALDIA": "Venustiano Carranza" }, "geometry": { "type": "Polygon", "coordinates": [[[-99.095,19.426],[-99.070,19.426],[-99.070,19.444],[-99.095,19.444],[-99.095,19.426]]] } },
    { "type": "Feature", "properties": { "NOMGEO": "Popotla", "ALCALDIA": "Miguel Hidalgo" }, "geometry": { "type": "Polygon", "coordinates": [[[-99.245,19.444],[-99.220,19.444],[-99.220,19.462],[-99.245,19.462],[-99.245,19.444]]] } },
    { "type": "Feature", "properties": { "NOMGEO": "Tlatelolco", "ALCALDIA": "Cuauhtémoc" }, "geometry": { "type": "Polygon", "coordinates": [[[-99.220,19.444],[-99.195,19.444],[-99.195,19.462],[-99.220,19.462],[-99.220,19.444]]] } },
    { "type": "Feature", "properties": { "NOMGEO": "Guerrero", "ALCALDIA": "Cuauhtémoc" }, "geometry": { "type": "Polygon", "coordinates": [[[-99.195,19.444],[-99.170,19.444],[-99.170,19.462],[-99.195,19.462],[-99.195,19.444]]] } },
    { "type": "Feature", "properties": { "NOMGEO": "Centro Histórico", "ALCALDIA": "Cuauhtémoc" }, "geometry": { "type": "Polygon", "coordinates": [[[-99.170,19.444],[-99.145,19.444],[-99.145,19.462],[-99.170,19.462],[-99.170,19.444]]] } },
    { "type": "Feature", "properties": { "NOMGEO": "Tepito", "ALCALDIA": "Cuauhtémoc" }, "geometry": { "type": "Polygon", "coordinates": [[[-99.145,19.444],[-99.120,19.444],[-99.120,19.462],[-99.145,19.462],[-99.145,19.444]]] } },
    { "type": "Feature", "properties": { "NOMGEO": "Peralvillo", "ALCALDIA": "Cuauhtémoc" }, "geometry": { "type": "Polygon", "coordinates": [[[-99.120,19.444],[-99.095,19.444],[-99.095,19.462],[-99.120,19.462],[-99.120,19.444]]] } },
    { "type": "Feature", "properties": { "NOMGEO": "Pensador Mexicano", "ALCALDIA": "Venustiano Carranza" }, "geometry": { "type": "Polygon", "coordinates": [[[-99.095,19.444],[-99.070,19.444],[-99.070,19.462],[-99.095,19.462],[-99.095,19.444]]] } },
    { "type": "Feature", "properties": { "NOMGEO": "San Cosme", "ALCALDIA": "Miguel Hidalgo" }, "geometry": { "type": "Polygon", "coordinates": [[[-99.245,19.462],[-99.220,19.462],[-99.220,19.480],[-99.245,19.480],[-99.245,19.462]]] } },
    { "type": "Feature", "properties": { "NOMGEO": "Azcapotzalco", "ALCALDIA": "Azcapotzalco" }, "geometry": { "type": "Polygon", "coordinates": [[[-99.220,19.462],[-99.195,19.462],[-99.195,19.480],[-99.220,19.480],[-99.220,19.462]]] } },
    { "type": "Feature", "properties": { "NOMGEO": "San Álvaro", "ALCALDIA": "Azcapotzalco" }, "geometry": { "type": "Polygon", "coordinates": [[[-99.195,19.462],[-99.170,19.462],[-99.170,19.480],[-99.195,19.480],[-99.195,19.462]]] } },
    { "type": "Feature", "properties": { "NOMGEO": "Vallejo", "ALCALDIA": "Gustavo A. Madero" }, "geometry": { "type": "Polygon", "coordinates": [[[-99.170,19.462],[-99.145,19.462],[-99.145,19.480],[-99.170,19.480],[-99.170,19.462]]] } },
    { "type": "Feature", "properties": { "NOMGEO": "La Raza", "ALCALDIA": "Gustavo A. Madero" }, "geometry": { "type": "Polygon", "coordinates": [[[-99.145,19.462],[-99.120,19.462],[-99.120,19.480],[-99.145,19.480],[-99.145,19.462]]] } },
    { "type": "Feature", "properties": { "NOMGEO": "Lindavista", "ALCALDIA": "Gustavo A. Madero" }, "geometry": { "type": "Polygon", "coordinates": [[[-99.120,19.462],[-99.095,19.462],[-99.095,19.480],[-99.120,19.480],[-99.120,19.462]]] } },
    { "type": "Feature", "properties": { "NOMGEO": "Industrial Vallejo", "ALCALDIA": "Azcapotzalco" }, "geometry": { "type": "Polygon", "coordinates": [[[-99.220,19.480],[-99.195,19.480],[-99.195,19.498],[-99.220,19.498],[-99.220,19.480]]] } },
    { "type": "Feature", "properties": { "NOMGEO": "San Pedro Xalpa", "ALCALDIA": "Azcapotzalco" }, "geometry": { "type": "Polygon", "coordinates": [[[-99.195,19.480],[-99.170,19.480],[-99.170,19.498],[-99.195,19.498],[-99.195,19.480]]] } },
    { "type": "Feature", "properties": { "NOMGEO": "La Villa", "ALCALDIA": "Gustavo A. Madero" }, "geometry": { "type": "Polygon", "coordinates": [[[-99.170,19.480],[-99.145,19.480],[-99.145,19.498],[-99.170,19.498],[-99.170,19.480]]] } },
    { "type": "Feature", "properties": { "NOMGEO": "San Juan de Aragón", "ALCALDIA": "Gustavo A. Madero" }, "geometry": { "type": "Polygon", "coordinates": [[[-99.145,19.480],[-99.120,19.480],[-99.120,19.498],[-99.145,19.498],[-99.145,19.480]]] } },
    { "type": "Feature", "properties": { "NOMGEO": "Aragón", "ALCALDIA": "Gustavo A. Madero" }, "geometry": { "type": "Polygon", "coordinates": [[[-99.120,19.480],[-99.095,19.480],[-99.095,19.498],[-99.120,19.498],[-99.120,19.480]]] } },
    { "type": "Feature", "properties": { "NOMGEO": "La Villa Norte", "ALCALDIA": "Gustavo A. Madero" }, "geometry": { "type": "Polygon", "coordinates": [[[-99.170,19.498],[-99.145,19.498],[-99.145,19.516],[-99.170,19.516],[-99.170,19.498]]] } },
    { "type": "Feature", "properties": { "NOMGEO": "Martín Carrera", "ALCALDIA": "Gustavo A. Madero" }, "geometry": { "type": "Polygon", "coordinates": [[[-99.145,19.498],[-99.120,19.498],[-99.120,19.516],[-99.145,19.516],[-99.145,19.498]]] } },
    { "type": "Feature", "properties": { "NOMGEO": "Zacatenco", "ALCALDIA": "Gustavo A. Madero" }, "geometry": { "type": "Polygon", "coordinates": [[[-99.120,19.498],[-99.095,19.498],[-99.095,19.516],[-99.120,19.516],[-99.120,19.498]]] } }
  ]
}
